{
    "links": {
        "self": "http://www.neowsapp.com/rest/v1/neo/3604841?api_key=iIulBulltgU6a56xZRHN4H3l9WmuAYTsLGpBGhQ2"
    },
    "id": "3604841",
    "neo_reference_id": "3604841",
    "name": "(2012 KM18)",
    "designation": "2012 KM18",
    "nasa_jpl_url": "http://ssd.jpl.nasa.gov/sbdb.cgi?sstr=3604841",
    "absolute_magnitude_h": 23.5,
    "estimated_diameter": {
        "kilometers": {
            "estimated_diameter_min": 0.0530340723,
            "estimated_diameter_max": 0.1185877909
        },
        "meters": {
            "estimated_diameter_min": 53.0340723319,
            "estimated_diameter_max": 118.5877908577
        },
        "miles": {
            "estimated_diameter_min": 0.0329538346,
            "estimated_diameter_max": 0.0736870142
        },
        "feet": {
            "estimated_diameter_min": 173.9963058693,
            "estimated_diameter_max": 389.0675677576
        }
    },
    "is_potentially_hazardous_asteroid": false,
    "close_approach_data": [
        {
            "close_approach_date": "2012-05-12",
            "close_approach_date_full": "2012-May-12 09:40",
            "epoch_date_close_approach": 1336815600000,
            "relative_velocity": {
                "kilometers_per_second": "3.5025134614",
                "kilometers_per_hour": "12609.0484610549",
                "miles_per_hour": "7834.7723618149"
            },
            "miss_distance": {
                "astronomical": "0.2180415141",
                "lunar": "84.8181489849",
                "kilometers": "32618546.080934967",
                "miles": "20268224.6846258646"
            },
            "orbiting_body": "Earth"
        }
    ],
    "orbital_data": {
        "orbit_id": "8",
        "orbit_determination_date": "2017-04-06 08:49:43",
        "first_observation_date": "2012-05-21",
        "last_observation_date": "2012-06-22",
        "data_arc_in_days": 32,
        "observations_used": 28,
        "orbit_uncertainty": "6",
        "minimum_orbit_intersection": ".185293",
        "jupiter_tisserand_invariant": "4.144",
        "epoch_osculation": "2459000.5",
        "eccentricity": ".298940938405745",
        "semi_major_axis": "1.700766961108734",
        "inclination": "6.145129533492503",
        "ascending_node_longitude": "219.0390265629485",
        "orbital_period": "810.1503853950547",
        "perihelion_distance": "1.192338089745402",
        "perihelion_argument": "23.58262722366054",
        "aphelion_distance": "2.209195832472066",
        "perihelion_time": "2459319.059693858341",
        "mean_anomaly": "218.4441952303949",
        "mean_motion": ".4443619437698011",
        "equinox": "J2000",
        "orbit_class": {
            "orbit_class_type": "AMO",
            "orbit_class_description": "Near-Earth asteroid orbits similar to that of 1221 Amor",
            "orbit_class_range": "1.017 AU < q (perihelion) < 1.3 AU"
        }
    },
    "is_sentry_object": false
}